$$SOE
2460728.500000000, A.D. 2025-Feb-22 00:00:00.0000, -3.873980279298943E+08, 4.188290218222679E+07, 3.800634648586445E+07,
2460735.500000000, A.D. 2025-Mar-01 00:00:00.0000, -3.857858199149874E+08, 3.169789111449730E+07, 3.820663322388844E+07,
2460742.500000000, A.D. 2025-Mar-08 00:00:00.0000, -3.838553415794888E+08, 2.148672206852413E+07, 3.837539896649638E+07,
2460749.500000000, A.D. 2025-Mar-15 00:00:00.0000, -3.816017469320354E+08, 1.125746154160426E+07, 3.851186079377276E+07,
2460756.500000000, A.D. 2025-Mar-22 00:00:00.0000, -3.790202016405587E+08, 1.018526336111844E+06, 3.861522464082636E+07,
2460763.500000000, A.D. 2025-Mar-29 00:00:00.0000, -3.761058946036409E+08, -9.221298054865727E+06, 3.868468560430621E+07,
2460770.500000000, A.D. 2025-Apr-05 00:00:00.0000, -3.728540494116405E+08, -1.945283724518927E+07, 3.871942829462104E+07,
2460777.500000000, A.D. 2025-Apr-12 00:00:00.0000, -3.692599377949910E+08, -2.966650584098703E+07, 3.871862743534172E+07,
2460784.500000000, A.D. 2025-Apr-19 00:00:00.0000, -3.653188954484755E+08, -3.985228431758182E+07, 3.868144867516951E+07,
2460791.500000000, A.D. 2025-Apr-26 00:00:00.0000, -3.610263401888199E+08, -4.999969512271516E+07, 3.860704959545837E+07,
2460798.500000000, A.D. 2025-May-03 00:00:00.0000, -3.563777925812664E+08, -6.009777803060012E+07, 3.849458093213265E+07,
2460805.500000000, A.D. 2025-May-10 00:00:00.0000, -3.513688992742293E+08, -7.013506480121674E+07, 3.834318804033777E+07,
2460812.500000000, A.D. 2025-May-17 00:00:00.0000, -3.459954592929130E+08, -8.009955327536413E+07, 3.815201262802044E+07,
2460819.500000000, A.D. 2025-May-24 00:00:00.0000, -3.402534534277206E+08, -8.997868108197500E+07, 3.792019477409922E+07,
2460826.500000000, A.D. 2025-May-31 00:00:00.0000, -3.341390766328712E+08, -9.975929880723378E+07, 3.764687525799122E+07,
2460833.500000000, A.D. 2025-Jun-07 00:00:00.0000, -3.276487741925514E+08, -1.094276416264203E+08, 3.733119837926902E+07,
2460840.500000000, A.D. 2025-Jun-14 00:00:00.0000, -3.207792843986062E+08, -1.189693003252339E+08, 3.697231547748228E+07,
2460847.500000000, A.D. 2025-Jun-21 00:00:00.0000, -3.135276869273537E+08, -1.283691953055585E+08, 3.656938882575025E+07,
2460854.500000000, A.D. 2025-Jun-28 00:00:00.0000, -3.058914542122703E+08, -1.376115522043489E+08, 3.612159581311871E+07,
2460861.500000000, A.D. 2025-Jul-05 00:00:00.0000, -2.978685077626744E+08, -1.466798774417199E+08, 3.562813379258995E+07,
2460868.500000000, A.D. 2025-Jul-12 00:00:00.0000, -2.894572810538782E+08, -1.555569350725615E+08, 3.508822570279624E+07,
2460875.500000000, A.D. 2025-Jul-19 00:00:00.0000, -2.806567892312486E+08, -1.642247261987978E+08, 3.450112646692498E+07,
2460882.500000000, A.D. 2025-Jul-26 00:00:00.0000, -2.714667058377904E+08, -1.726644718048403E+08, 3.386613021658856E+07,
2460889.500000000, A.D. 2025-Aug-02 00:00:00.0000, -2.618874468867841E+08, -1.808565999356992E+08, 3.318257840992635E+07,
2460896.500000000, A.D. 2025-Aug-09 00:00:00.0000, -2.519202625863644E+08, -1.887807383238970E+08, 3.244986891374603E+07,
2460903.500000000, A.D. 2025-Aug-16 00:00:00.0000, -2.415673368869194E+08, -1.964157137853524E+08, 3.166746610805046E+07,
2460910.500000000, A.D. 2025-Aug-23 00:00:00.0000, -2.308318946926179E+08, -2.037395598018000E+08, 3.083491205277240E+07,
2460917.500000000, A.D. 2025-Aug-30 00:00:00.0000, -2.197183163890700E+08, -2.107295331943024E+08, 2.995183880126979E+07,
2460924.500000000, A.D. 2025-Sep-06 00:00:00.0000, -2.082322608854886E+08, -2.173621406930035E+08, 2.901798211490632E+07,
2460931.500000000, A.D. 2025-Sep-13 00:00:00.0000, -1.963807983676403E+08, -2.236131798762114E+08, 2.803319655198374E+07,
2460938.500000000, A.D. 2025-Sep-20 00:00:00.0000, -1.841725487024274E+08, -2.294577982872609E+08, 2.699747149406183E+07,
2460945.500000000, A.D. 2025-Sep-27 00:00:00.0000, -1.716178232710197E+08, -2.348705699237470E+08, 2.591094823153285E+07,
2460952.500000000, A.D. 2025-Oct-04 00:00:00.0000, -1.587287706270103E+08, -2.398255909595875E+08, 2.477393825907243E+07,
2460959.500000000, A.D. 2025-Oct-11 00:00:00.0000, -1.455195242010954E+08, -2.442965980714159E+08, 2.358694260598592E+07,
2460966.500000000, A.D. 2025-Oct-18 00:00:00.0000, -1.320063490103675E+08, -2.482571120137525E+08, 2.235067195593245E+07,
2460973.500000000, A.D. 2025-Oct-25 00:00:00.0000, -1.182077838049712E+08, -2.516806086313013E+08, 2.106606727222264E+07,
2460980.500000000, A.D. 2025-Nov-01 00:00:00.0000, -1.041447744716027E+08, -2.545407191740737E+08, 1.973432057088512E+07,
2460987.500000000, A.D. 2025-Nov-08 00:00:00.0000, -8.984079378134298E+07, -2.568114613242866E+08, 1.835689538749941E+07,
2460994.500000000, A.D. 2025-Nov-15 00:00:00.0000, -7.532194172835973E+07, -2.584675016558993E+08, 1.693554637098570E+07,
2461001.500000000, A.D. 2025-Nov-22 00:00:00.0000, -6.061701978597549E+07, -2.594844490227084E+08, 1.547233733495475E+07,
2461008.500000000, A.D. 2025-Nov-29 00:00:00.0000, -4.575757242597665E+07, -2.598391762633014E+08, 1.396965712574896E+07,
2461015.500000000, A.D. 2025-Dec-06 00:00:00.0000, -3.077789103793127E+07, -2.595101674420807E+08, 1.243023267203856E+07,
2461022.500000000, A.D. 2025-Dec-13 00:00:00.0000, -1.571497262835553E+07, -2.584778894214562E+08, 1.085713800437725E+07,
2461029.500000000, A.D. 2025-Dec-20 00:00:00.0000, -6.084229566732332E+05, -2.567251803456302E+08, 9.253798081679583E+06,
2461036.500000000, A.D. 2025-Dec-27 00:00:00.0000, 1.449970086490266E+07, -2.542376441306505E+08, 7.623986821469456E+06,
2461043.500000000, A.D. 2026-Jan-03 00:00:00.0000, 2.956511156993291E+07, -2.510040413558994E+08, 5.971818568202928E+06,
2461050.500000000, A.D. 2026-Jan-10 00:00:00.0000, 4.454157969759598E+07, -2.470166652806122E+08, 4.301732210874200E+06,
2461057.500000000, A.D. 2026-Jan-17 00:00:00.0000, 5.938128900504703E+07, -2.422716897581456E+08, 2.618467394728899E+06,
2461064.500000000, A.D. 2026-Jan-24 00:00:00.0000, 7.403525699599877E+07, -2.367694749209396E+08, 9.270325653773099E+05,
2461071.500000000, A.D. 2026-Jan-31 00:00:00.0000, 8.845381492724541E+07, -2.305148164860980E+08, -7.673350813303441E+05,
2461078.500000000, A.D. 2026-Feb-07 00:00:00.0000, 1.025871382721505E+08, -2.235171253651240E+08, -2.459217301578298E+06,
2461085.500000000, A.D. 2026-Feb-14 00:00:00.0000, 1.163858154876317E+08, -2.157905259119923E+08, -4.143069333078682E+06,
2461092.500000000, A.D. 2026-Feb-21 00:00:00.0000, 1.298014401336107E+08, -2.073538631606231E+08, -5.813280001674309E+06,
2461099.500000000, A.D. 2026-Feb-28 00:00:00.0000, 1.427872076699761E+08, -1.982306122710766E+08, -7.464235621715397E+06,
2461106.500000000, A.D. 2026-Mar-07 00:00:00.0000, 1.552984959547681E+08, -1.884486905964488E+08, -9.090385789224342E+06,
2461113.500000000, A.D. 2026-Mar-14 00:00:00.0000, 1.672934130806141E+08, -1.780401776130125E+08, -1.068630945830774E+07,
2461120.500000000, A.D. 2026-Mar-21 00:00:00.0000, 1.787332961651690E+08, -1.670409471917215E+08, -1.224677911029414E+07,
2461127.500000000, A.D. 2026-Mar-28 00:00:00.0000, 1.895831430417279E+08, -1.554902226656439E+08, -1.376682069921586E+07,
2461134.500000000, A.D. 2026-Apr-04 00:00:00.0000, 1.998119633260112E+08, -1.434300705460814E+08, -1.524176754628124E+07,
2461141.500000000, A.D. 2026-Apr-11 00:00:00.0000, 2.093930400874767E+08, -1.309048505745521E+08, -1.666730669484592E+07,
2461148.500000000, A.D. 2026-Apr-18 00:00:00.0000, 2.183040975371129E+08, -1.179606407561622E+08, -1.803951658927345E+07,
2461155.500000000, A.D. 2026-Apr-25 00:00:00.0000, 2.265273743962192E+08, -1.046446561323774E+08, -1.935489536932191E+07,
2461162.500000000, A.D. 2026-May-02 00:00:00.0000, 2.340496066877667E+08, -9.100467912084880E+07, -2.061037952660908E+07,
2461169.500000000, A.D. 2026-May-09 00:00:00.0000, 2.408619273128949E+08, -7.708851736775891E+07, -2.180335311073714E+07,
2461176.500000000, A.D. 2026-May-16 00:00:00.0000, 2.469596927951216E+08, -6.294350221845296E+07, -2.293164805473811E+07,
2461183.500000000, A.D. 2026-May-23 00:00:00.0000, 2.523422491757399E+08, -4.861603696700150E+07, -2.399353639035285E+07,
2461190.500000000, A.D. 2026-May-30 00:00:00.0000, 2.570126479544318E+08, -3.415120155883889E+07, -2.498771520788299E+07,
2461197.500000000, A.D. 2026-Jun-06 00:00:00.0000, 2.609773249056114E+08, -1.959242089570695E+07, -2.591328580356409E+07,
2461204.500000000, A.D. 2026-Jun-13 00:00:00.0000, 2.642457580661712E+08, -4.981197556991350E+06, -2.676972858710157E+07,
2461211.500000000, A.D. 2026-Jun-20 00:00:00.0000, 2.668301159890248E+08, 9.643095410018245E+06, -2.755687469699224E+07,
2461218.500000000, A.D. 2026-Jun-27 00:00:00.0000, 2.687449047444583E+08, 2.424336464775246E+07, -2.827487535377341E+07,
2461225.500000000, A.D. 2026-Jul-04 00:00:00.0000, 2.700066222096634E+08, 3.878489360418078E+07, -2.892417005706344E+07,
2461232.500000000, A.D. 2026-Jul-11 00:00:00.0000, 2.706334267265648E+08, 5.323539220230035E+07, -2.950545456198637E+07,
2461239.500000000, A.D. 2026-Jul-18 00:00:00.0000, 2.706448253736246E+08, 6.756500532205923E+07, -3.001964939031801E+07,
2461246.500000000, A.D. 2026-Jul-25 00:00:00.0000, 2.700613854798424E+08, 8.174628646942061E+07, -3.046786947421582E+07,
2461253.500000000, A.D. 2026-Aug-01 00:00:00.0000, 2.689044716622416E+08, 9.575414280606678E+07, -3.085139539156361E+07,
2461260.500000000, A.D. 2026-Aug-08 00:00:00.0000, 2.671960096718976E+08, 1.095657573602442E+08, -3.117164653490423E+07,
2461267.500000000, A.D. 2026-Aug-15 00:00:00.0000, 2.649582775792613E+08, 1.231604942114504E+08, -3.143015641914332E+07,
2461274.500000000, A.D. 2026-Aug-22 00:00:00.0000, 2.622137228957918E+08, 1.365197926229268E+08, -3.162855006231365E+07,
2461281.500000000, A.D. 2026-Aug-29 00:00:00.0000, 2.589848021603293E+08, 1.496270528932812E+08, -3.176852336790310E+07,
2461288.500000000, A.D. 2026-Sep-05 00:00:00.0000, 2.552938435752423E+08, 1.624675145683166E+08, -3.185182490802569E+07,
2461295.500000000, A.D. 2026-Sep-12 00:00:00.0000, 2.511629333329446E+08, 1.750281324077514E+08, -3.188024004832254E+07,
$$EOE